NORAD_CAT_ID,OBJECT_NAME,OBJECT_TYPE,EPOCH,MEAN_MOTION,ECCENTRICITY,INCLINATION,RA_OF_ASC_NODE,ARG_OF_PERICENTER,MEAN_ANOMALY,BSTAR,MEAN_MOTION_DOT,MEAN_MOTION_DDOT,TLE_LINE0,TLE_LINE1,TLE_LINE2,SEMIMAJOR_AXIS,PERIOD,APOGEE,PERIGEE,DECAYED
52281.0,STARLINK-3779,PAYLOAD,2022-11-14 20:52:59,15.08837981,0.0002013,53.2188,144.7099,44.3048,315.8105,1.0599e-05,-1.2e-06,0.0,0 STARLINK-3779,1 52281U 22041W   22318.87012772 -.00000120  00000-0  10599-4 0  9999,2 52281  53.2188 144.7099 0002013  44.3048 315.8105 15.08837981 32794,6917.887,95.438,541.144,538.359,0.0
52281.0,STARLINK-3779,PAYLOAD,2022-11-15 12:46:50,15.0883562,0.0002042,53.2187,141.7366,43.7769,316.3385,0.00010762,1.425e-05,0.0,0 STARLINK-3779,1 52281U 22041W   22319.53252717  .00001425  00000-0  10762-3 0  9997,2 52281  53.2187 141.7366 0002042  43.7769 316.3385 15.08835620 31672,6917.894,95.438,541.1709999999998,538.346,0.0
52281.0,STARLINK-3779,PAYLOAD,2022-11-15 19:08:22,15.08838925,0.0002051,53.2187,140.5471,44.8436,315.2721,0.00013039,1.788e-05,0.0,0 STARLINK-3779,1 52281U 22041W   22319.79748539  .00001788  00000-0  13039-3 0  9999,2 52281  53.2187 140.5471 0002051  44.8436 315.2721 15.08838925 31717,6917.884,95.438,541.168,538.33,0.0
52281.0,STARLINK-3779,PAYLOAD,2022-11-16 11:02:13,15.08843827,0.0002058,53.2186,137.5735,45.9761,314.1401,0.00013346,1.837e-05,0.0,0 STARLINK-3779,1 52281U 22041W   22320.45988196  .00001837  00000-0  13346-3 0  9995,2 52281  53.2186 137.5735 0002058  45.9761 314.1401 15.08843827 33032,6917.869000000002,95.437,541.1569999999998,538.31,0.0
52281.0,STARLINK-3779,PAYLOAD,2022-11-16 12:37:36,15.08844076,0.0002056,53.2187,137.2761,46.2701,313.8461,0.00013129,1.802e-05,0.0,0 STARLINK-3779,1 52281U 22041W   22320.52612180  .00001802  00000-0  13129-3 0  9991,2 52281  53.2187 137.2761 0002056  46.2701 313.8461 15.08844076 31829,6917.868,95.437,541.155,538.311,0.0
52281.0,STARLINK-3779,PAYLOAD,2022-11-16 18:59:09,15.08847968,0.0002058,53.2186,136.0864,46.657,313.4594,0.00012357,1.679e-05,0.0,0 STARLINK-3779,1 52281U 22041W   22320.79107902  .00001679  00000-0  12357-3 0  9995,2 52281  53.2186 136.0864 0002058  46.6570 313.4594 15.08847968 31869,6917.856,95.437,541.145,538.297,0.0
52281.0,STARLINK-3779,PAYLOAD,2022-11-17 10:53:01,15.08840267,0.0002037,53.2188,133.1129,45.8874,314.2286,2.2122e-06,-2.53e-06,0.0,0 STARLINK-3779,1 52281U 22041W   22321.45348786 -.00000253  00000-0  22122-5 0  9997,2 52281  53.2188 133.1129 0002037  45.8874 314.2286 15.08840267 33187,6917.88,95.438,541.154,538.335,0.0
52281.0,STARLINK-3779,PAYLOAD,2022-11-17 15:39:10,15.08841691,0.0002053,53.2188,132.2211,46.2326,313.8835,1.23e-05,-9.2e-07,0.0,0 STARLINK-3779,1 52281U 22041W   22321.65220599 -.00000092  00000-0  12300-4 0  9997,2 52281  53.2188 132.2211 0002053  46.2326 313.8835 15.08841691 31998,6917.875,95.437,541.16,538.32,0.0
52281.0,STARLINK-3779,PAYLOAD,2022-11-18 10:43:49,15.08827992,0.000211,53.2192,128.6532,50.328,309.7898,-9.3282e-05,-1.772e-05,0.0,0 STARLINK-3779,1 52281U 22041W   22322.44709927 -.00001772  00000-0 -93282-4 0  9997,2 52281  53.2192 128.6532 0002110  50.3280 309.7898 15.08827992 33338,6917.917,95.438,541.242,538.322,0.0
52281.0,STARLINK-3779,PAYLOAD,2022-11-18 12:19:12,15.0882987,0.0002083,53.2198,128.3559,49.4728,310.6445,-0.00011553,-2.126e-05,0.0,0 STARLINK-3779,1 52281U 22041W   22322.51333997 -.00002126  00000-0 -11553-3 0  9999,2 52281  53.2198 128.3559 0002083  49.4728 310.6445 15.08829870 32127,6917.911,95.438,541.217,538.335,0.0
52281.0,STARLINK-3779,PAYLOAD,2022-11-19 10:34:36,15.08830598,0.0002069,53.2192,124.1923,45.893,314.2232,4.955300000000001e-05,5e-06,0.0,0 STARLINK-3779,1 52281U 22041W   22323.44070083  .00000500  00000-0  49553-4 0  9990,2 52281  53.2192 124.1923 0002069  45.8930 314.2232 15.08830598 33482,6917.909000000002,95.438,541.205,538.3430000000002,0.0
52281.0,STARLINK-3779,PAYLOAD,2022-11-20 10:25:23,15.08835887,0.0002059,53.2196,119.7324,46.8246,313.2918,0.00014641,2.042e-05,0.0,0 STARLINK-3779,1 52281U 22041W   22324.43430062  .00002042  00000-0  14641-3 0  9999,2 52281  53.2196 119.7324 0002059  46.8246 313.2918 15.08835887 32419,6917.893,95.438,541.182,538.3340000000002,0.0
52281.0,STARLINK-3779,PAYLOAD,2022-11-20 16:46:55,15.08839793,0.0002085,53.2197,118.5432,47.359,312.7578,0.00017055,2.427e-05,0.0,0 STARLINK-3779,1 52281U 22041W   22324.69925824  .00002427  00000-0  17055-3 0  9991,2 52281  53.2197 118.5432 0002085  47.3590 312.7578 15.08839793 33679,6917.880999999999,95.438,541.188,538.304,0.0
52281.0,STARLINK-3779,PAYLOAD,2022-11-21 10:16:09,15.08849465,0.0002131,53.2195,115.2726,47.55,312.5673,0.00018538,2.664e-05,0.0,0 STARLINK-3779,1 52281U 22041W   22325.42789189  .00002664  00000-0  18538-3 0  9995,2 52281  53.2195 115.2726 0002131  47.5500 312.5673 15.08849465 32560,6917.851,95.437,541.191,538.242,0.0
52281.0,STARLINK-3779,PAYLOAD,2022-11-21 16:37:42,15.08846186,0.0002257,53.2202,114.0834,50.4027,309.7164,0.00012586,1.716e-05,0.0,0 STARLINK-3779,1 52281U 22041W   22325.69285496  .00001716  00000-0  12586-3 0  9990,2 52281  53.2202 114.0834 0002257  50.4027 309.7164 15.08846186 32607,6917.861,95.437,541.288,538.165,0.0
52281.0,STARLINK-3779,PAYLOAD,2022-11-22 10:06:57,15.08844656,0.0002146,53.2203,110.8139,44.7288,315.3877,5.8835e-05,6.48e-06,0.0,0 STARLINK-3779,1 52281U 22041W   22326.42149487  .00000648  00000-0  58835-4 0  9992,2 52281  53.2203 110.8139 0002146  44.7288 315.3877 15.08844656 33933,6917.866,95.437,541.216,538.247,0.0
52281.0,STARLINK-3779,PAYLOAD,2022-11-22 14:53:06,15.08847662,0.0002232,53.2202,109.9214,48.1178,312.0004,5.9332e-05,6.56e-06,0.0,0 STARLINK-3779,1 52281U 22041W   22326.62021199  .00000656  00000-0  59332-4 0  9995,2 52281  53.2202 109.9214 0002232  48.1178 312.0004 15.08847662 32741,6917.857,95.437,541.266,538.178,0.0
52281.0,STARLINK-3779,PAYLOAD,2022-11-23 08:22:20,15.0885598,0.0002227,53.2204,106.6522,44.4661,315.6509,-0.00019618,-3.411e-05,0.0,0 STARLINK-3779,1 52281U 22041W   22327.34885346 -.00003411  00000-0 -19618-3 0  9993,2 52281  53.2204 106.6522 0002227  44.4661 315.6509 15.08855980 32852,6917.831999999999,95.437,541.237,538.156,0.0
52281.0,STARLINK-3779,PAYLOAD,2022-11-23 17:54:39,15.08844983,0.0002214,53.2205,104.8667,45.6695,314.4479,-9.1215e-05,-1.74e-05,0.0,0 STARLINK-3779,1 52281U 22041W   22327.74629481 -.00001740  00000-0 -91215-4 0  9990,2 52281  53.2205 104.8667 0002214  45.6695 314.4479 15.08844983 34136,6917.865,95.437,541.262,538.1990000000002,0.0
52281.0,STARLINK-3779,PAYLOAD,2022-11-24 09:48:30,15.08845867,0.0002159,53.2201,101.8915,45.8579,314.2591,1.7384e-05,-1.2e-07,0.0,0 STARLINK-3779,1 52281U 22041W   22328.40869134 -.00000012  00000-0  17384-4 0  9990,2 52281  53.2201 101.8915 0002159  45.8579 314.2591 15.08845867 33017,6917.861999999999,95.437,541.221,538.234,0.0
52281.0,STARLINK-3779,PAYLOAD,2022-11-24 16:10:03,15.08840097,0.0002132,53.2198,100.7017,42.2508,317.8648,-3.6079e-05,-8.62e-06,0.0,0 STARLINK-3779,1 52281U 22041W   22328.67365642 -.00000862  00000-0 -36079-4 0  9990,2 52281  53.2198 100.7017 0002132  42.2508 317.8648 15.08840097 33053,6917.88,95.438,541.22,538.27,0.0
52281.0,STARLINK-3779,PAYLOAD,2022-11-25 01:42:22,15.08849515,0.000253,53.2203,98.9172,35.3138,324.8022,-0.00015826,-2.807e-05,0.0,0 STARLINK-3779,1 52281U 22041W   22329.07109367 -.00002807  00000-0 -15826-3 0  9992,2 52281  53.2203  98.9172 0002530  35.3138 324.8022 15.08849515 34334,6917.851,95.437,541.467,537.966,0.0
52281.0,STARLINK-3779,PAYLOAD,2022-11-25 09:39:18,15.08841009,0.0002151,53.2195,97.4297,38.3116,321.8029,3.3105e-05,2.39e-06,0.0,0 STARLINK-3779,1 52281U 22041W   22329.40229474  .00000239  00000-0  33105-4 0  9997,2 52281  53.2195  97.4297 0002151  38.3116 321.8029 15.08841009 33168,6917.877,95.437,541.23,538.254,0.0
52281.0,STARLINK-3779,PAYLOAD,2022-11-25 17:36:13,15.08859994,0.0002213,53.2199,95.9444,41.3606,318.7553,-5.896300000000001e-05,-1.227e-05,0.0,0 STARLINK-3779,1 52281U 22041W   22329.73348438 -.00001227  00000-0 -58963-4 0  9994,2 52281  53.2199  95.9444 0002213  41.3606 318.7553 15.08859994 34436,6917.819,95.436,541.215,538.153,0.0
52281.0,STARLINK-3779,PAYLOAD,2022-11-26 01:33:08,15.08848689,0.0002199,53.2199,94.4575,43.0874,317.029,8.2376e-05,1.023e-05,0.0,0 STARLINK-3779,1 52281U 22041W   22330.06468734  .00001023  00000-0  82376-4 0  9991,2 52281  53.2199  94.4575 0002199  43.0874 317.0290 15.08848689 34488,6917.854,95.437,541.24,538.198,0.0
52281.0,STARLINK-3779,PAYLOAD,2022-11-26 07:54:41,15.08840943,0.0002184,53.22,93.269,43.9708,316.1458,0.00012731,1.739e-05,0.0,0 STARLINK-3779,1 52281U 22041W   22330.32964961  .00001739  00000-0  12731-3 0  9994,2 52281  53.2200  93.2690 0002184  43.9708 316.1458 15.08840943 33306,6917.878000000002,95.437,541.253,538.232,0.0
52281.0,STARLINK-3779,PAYLOAD,2022-11-26 19:02:23,15.08845492,0.0002189,53.2186,91.1869,42.2349,317.8812,0.00015862,2.237e-05,0.0,0 STARLINK-3779,1 52281U 22041W   22330.79332581  .00002237  00000-0  15862-3 0  9994,2 52281  53.2186  91.1869 0002189  42.2349 317.8812 15.08845492 33375,6917.864000000001,95.437,541.243,538.214,0.0
52281.0,STARLINK-3779,PAYLOAD,2022-11-27 07:45:28,15.08836671,0.0002272,53.2179,88.8078,45.2855,314.8322,0.00017808,2.547e-05,0.0,0 STARLINK-3779,1 52281U 22041W   22331.32325018  .00002547  00000-0  17808-3 0  9997,2 52281  53.2179  88.8078 0002272  45.2855 314.8322 15.08836671 34676,6917.891,95.438,541.327,538.184,0.0
52281.0,STARLINK-3779,PAYLOAD,2022-11-27 17:17:48,15.08837438,0.0002315,53.2185,87.0237,44.2255,315.8922,-6.4e-05,-1.307e-05,0.0,0 STARLINK-3779,1 52281U 22041W   22331.72069530 -.00001307  00000-0 -64000-4 0  9997,2 52281  53.2185  87.0237 0002315  44.2255 315.8922 15.08837438 33513,6917.888000000001,95.438,541.355,538.1519999999998,0.0
